#dP2024  3 31 12  0  0.00000000      96 __u+U IGS20 EXT  IAC
## 2308  43200.00000000   900.00000000 60400 0.5000000000000
+  120   C06C07C08C09C10C11C12C13C14C16C19C20C21C22C23C24C25
+        C26C27C28C29C30C32C33C34C35C36C37C38C39C40C41C42C43
+        C44C45C46E02E03E04E05E07E08E09E10E11E12E13E14E15E18
+        E19E21E24E25E26E27E30E31E33E34E36G01G02G03G04G05G06
+        G07G08G09G10G11G12G13G14G15G16G17G18G19G20G21G22G23
+        G24G25G26G27G28G29G30G31G32J02J03J04R01R02R03R04R05
+        R07R08R09R11R12R13R14R15R16R17R18R19R20R21R22R24R25
+        R26  0  0  0  0  0  0  0  0  0  0  0  0  0  0  0  0
++         9  9  8  8  9  9  9  9  9 10  9  9  8  8  8  7  9
++         9  9  9  8  9  8  9  9 11  9  9 10  8  8  6  9  7
++         8 11  8  8  6  8  8  7  7  6  8  7  8  8  7  8  6
++         8  7  7  7  7  8  8  7  8  7  7  8  6  6  6  8  7
++         7  7  6  7 11  7  7  7  7  6  6  9  8  9  7  7  7
++         7  8  8  7  6  8  7  7  8  9  8 10  8  6  8  7  8
++         8  7  8  8  7  7  8  9  8  9  7  9  9  7  7  8  7
++         0  0  0  0  0  0  0  0  0  0  0  0  0  0  0  0  0
%c M  cc GPS ccc cccc cccc cccc cccc ccccc ccccc ccccc ccccc
%c cc cc ccc ccc cccc cccc cccc cccc ccccc ccccc ccccc ccccc
%f  0.0000000  0.000000000  0.00000000000  0.000000000000000
%f  0.0000000  0.000000000  0.00000000000  0.000000000000000
%i    0    0    0    0      0      0      0      0         0
%i    0    0    0    0      0      0      0      0         0
/* IAC                                ULTRA-RAPID PREDICTION
/* S/V CLOCKS ARE ALIGNED TO GNSS TIME                      
/* G:C1WC2W R:C1PC2P E:C1XC5X C:C2IC6I J:C1CC2S             
/* PCV:IGS20_2290 OL/AL:FES2004  NONE     YN ORB:CoN CLK:CoN
*  2024 04 01  6 30  0.00000000
PC06   -462.552606  35177.881915 -22978.814812    313.576678
PC07 -14356.318458  26910.798452  29124.347000   -861.891772
PC08 -17476.482877  37803.237672  -7244.404815     13.520240
PC09   3861.556423  37748.988531 -17227.209605   -700.361165
PC10  -4650.092763  27921.683352  31502.944450     20.444847
PC11  -7895.562702  13712.252795  23050.777193    489.290990
PC12 -20949.236760  -3218.156813  18189.245791   -223.974621
PC13 -11254.066673  38229.939064 -14008.533808    428.521933
PC14 -18431.477284  15735.417944 -13761.422513    539.052845
PC16  -4090.085011  32124.921453 -26524.298883   -430.984359
PC19   9257.120153 -17145.817529  20018.971851   -916.251065
PC20  23920.924658 -12598.977974   7011.393959   -314.790386
PC21 -25388.558989   -134.646936  11566.299215   -961.961705
PC22 -11587.157212 -12132.716697  22296.930332    -54.436630
PC23   5853.065290  23014.672142  14659.419639   -775.558705
PC24 -15969.837656  15150.394741 -17182.070623    946.893268
PC25  -6280.735019  27161.671913  -1475.734085    363.690961
PC26 -15676.752643  -4701.982547 -22620.336004   -270.946608
PC27  23186.437637  10596.696817 -11357.997485    292.733894
PC28  18154.366520  20773.386783   4192.748838    223.575491
PC29  -1069.087121 -19424.226447 -20017.538334    262.226924
PC30  16563.595695  -5910.153999 -21672.483475    -47.852948
PC32  25392.359475    -57.654322 -11578.564194   -593.420366
PC33  -9206.550675  17203.345626 -19932.786147   -965.165071
PC34 -15455.792280   7276.379906  22054.570439    402.567774
PC35 -18797.275660 -20184.834759  -4399.663525    397.569629
PC36   7083.103402 -26931.770943   1751.922727     37.187496
PC37  15454.392214   5484.321510  22586.864773   -951.780387
PC38 -20555.874537  36886.616782    773.380089    146.250093
PC39  -7256.129402  28321.709972 -30234.380874     -7.822585
PC40 -20098.750114  20120.854310  31025.839627    -63.429506
PC41  10819.572756  12493.272244 -22429.711561   -916.157924
PC42 -24692.890711  11784.746370  -5345.922234   -444.502104
PC43     42.588984  19065.613183  20355.539481     66.292252
PC44 -23649.525426  -9834.143892  11102.456560    430.431977
PC45  -5749.222752 -22966.925335 -14760.438095    -78.332426
PC46  15704.184644 -15877.221456  16702.276223   -136.355913
PE02  23905.135964 -15822.148622   7330.780106    115.858420
PE03  23901.234027  -5295.741173  16651.893366   -104.207079
PE04  -5091.259360  16178.071918 -24245.878598   -363.110643
PE05  28356.854508   8478.061667   -543.070415   4734.416433
PE07 -15888.587062 -17493.533545  17828.580128   -112.092586
PE08   5941.550890 -15781.403107  24333.937600   -247.972463
PE09  15849.327468  17401.122971 -17950.180565   -391.126216
PE10   4408.400654  28946.047816   4323.163325   -613.716453
PE11  10770.499068  26858.948415  -6182.815080   3102.553694
PE12  -2072.022574  26503.724483  12984.796940   -974.118945
PE13 -10434.705042 -27147.559138   5553.489706    -20.798326
PE14  30058.853161   9703.528160    121.821140     82.668101
PE15   2366.365563 -26254.827810 -13474.572241    -94.518548
PE18 -20915.491282 -11850.895073  -5368.691476    500.494769
PE19 -25162.954027   3600.198010 -15153.156198   -325.792271
PE21 -20546.284894   -663.837032 -21305.494217   -586.929006
PE24   4684.757608  17764.413734  23192.397650   -682.871323
PE25  20327.281957   1048.166126  21487.613371      2.809346
PE26 -17113.413367 -11496.118195  21246.472870    412.987587
PE27  -5064.741575 -17482.895578 -23345.053320   -313.165589
PE30  13405.655548 -23775.657133 -11453.419678   -153.256342
PE31 -13231.013518  23806.653128  11596.426755    -19.693081
PE33 -13813.318159   9395.349332  24436.149599      9.809911
PE34  13582.416518 -10008.022060 -24326.309880   -103.179379
PE36  16922.723696  12152.411547 -21018.182898   -207.190278
PG01 -12363.981785   8557.337379  21504.545961    177.187807
PG02 -16434.623270  -2185.879782  21292.365746   -460.856315
PG03 -21209.136731   9550.507920  12562.466853    285.568758
PG04 -24877.587057   -538.890633  -9460.405151    328.451210
PG05  16305.219101   3235.746002 -20908.211919   -167.511533
PG06   5168.834816  25885.630675   2379.918064    342.503120
PG07  -7844.190399  17906.404362 -17256.707200    -97.323816
PG08 -26146.529270  -5863.025608     15.183977     93.947279
PG09 -16107.529484   9815.993835 -18799.413235    144.598441
PG10   6520.882529 -20893.202308  15021.754126     -4.323862
PG11  11873.176036  21627.060288  -9876.937537   -623.782446
PG12  21797.463521  -7192.722006  13025.588284   -492.506545
PG13  21761.795270  14009.911718  -6680.885293    639.018728
PG14 -10247.220763  21501.000647  11570.906632    365.105562
PG15  26479.039106   3175.846768   -593.281376    143.696709
PG16 -12878.956762  -8976.821731 -21804.914961   -327.582177
PG17  -3028.291912  14982.464790  22135.150805    711.373990
PG18   7264.240265 -18743.253195 -17248.141374   -586.448379
PG19   7828.049804  16842.910118  18941.680612    461.970439
PG20   8279.413319  14141.343447 -20869.245932    381.818831
PG21 -17397.981848  -8522.473259  19046.629707    129.059948
PG22  -3861.014250  19702.618320  17957.060016      7.189362
PG23  15848.251189 -20841.289970   3825.370517    190.360493
PG24  17156.488120   4636.073373  19442.125889   -453.930457
PG25  20185.526531 -16243.062068   4813.977364    492.732501
PG26  -3566.711239 -17987.297416 -19240.403257    172.463906
PG27 -20712.805510 -13128.163975 -11014.717344    -15.798744
PG28  -4407.016831 -25716.030908   4965.934562   -185.965875
PG29  18566.988844  -6572.442738 -17921.775946   -603.227337
PG30   -315.753186  24690.997426  -9277.011626   -411.673330
PG31 -10076.945668 -23748.091049  -5567.617222   -228.025024
PG32  -1391.237634 -15828.212997  21519.284268   -617.358665
PJ02 -29987.844072  29634.125341   7501.952413     -3.542419
PJ03 -25896.423260  23696.701634  28456.213504     -0.128975
PJ04 -33018.986699  22209.543084  -8888.421171     50.550747
PR01 -15600.542413  -6710.335438  19034.583484     81.245388
PR02 -25125.248529    839.930486   4565.933016    -22.655410
PR03 -20483.690272   8582.770016 -12544.233631     97.439677
PR04  -4860.313579  11049.922785 -22436.303957    230.079913
PR05  13374.320251   7870.237162 -20219.710911    129.267386
PR07  19766.558404  -8894.220172  13456.379963     79.241558
PR08   4414.394079 -11229.844554  22535.872838    -74.932045
PR09  12751.508939  -2976.991343  21921.241992    178.552714
PR11   7381.177576 -24015.992687  -4452.091842     29.386313
PR12  -4198.297576 -15131.973175 -20075.977828     38.479380
PR13 -11779.983443    194.594077 -22641.428625    -45.838539
PR14 -13347.585045  18559.217668 -11288.113394     26.312787
PR15  -6688.852530  23872.385205   6005.451568     80.874029
PR16   4020.513426  15262.142310  20032.926421     24.457352
PR17  -7713.885005   7364.771116  23177.106981     74.067256
PR18   4516.024767  18806.826759  16609.961222    134.957641
PR19  13190.199372  21603.665295   3140.702652   -271.470521
PR20  16184.669940  10430.629777 -16698.520757   -110.637810
PR21   7700.557526  -7258.507097 -23211.344854    -89.146631
PR22  -4648.420757 -19629.765748 -15599.491041    115.139508
PR24 -16783.165212  -9060.539121  16947.163232    -50.048486
PR25   8152.177136  -7362.891555 -23017.643215    -26.302959
PR26   5620.617474 -11268.095571  22213.361213    -27.273174
EOF
